{"type":"FeatureCollection","name":"jalnetra_villages","features":[{"type":"Feature","properties":{"id":"1255735","name":"Sonpur","district":"Saran","inCorr":false,"corrDist":1.77,"elevation":11.5},"geometry":{"type":"Point","coordinates":[85.1718,25.6934]}},{"type":"Feature","properties":{"id":"1257405","name":"Sangrampur","district":"Purba Champaran","inCorr":false,"corrDist":0.12,"elevation":8.5},"geometry":{"type":"Point","coordinates":[84.6898,26.4752]}},{"type":"Feature","properties":{"id":"1257607","name":"Salempur","district":"Gopalganj","inCorr":true,"corrDist":0,"elevation":5},"geometry":{"type":"Point","coordinates":[84.6517,26.4588]}},{"type":"Feature","properties":{"id":"1270525","name":"Hajipur","district":"Vaishali","inCorr":false,"corrDist":1.4,"elevation":13},"geometry":{"type":"Point","coordinates":[85.2098,25.6854]}},{"type":"Feature","properties":{"id":"1276248","name":"Bhaisalotan","district":"","inCorr":false,"corrDist":0.22,"elevation":5.9},"geometry":{"type":"Point","coordinates":[83.9167,27.45]}},{"type":"Feature","properties":{"id":"1277939","name":"Bagaha","district":"Pashchim Champaran","inCorr":true,"corrDist":0,"elevation":7.1},"geometry":{"type":"Point","coordinates":[84.09,27.0992]}},{"type":"Feature","properties":{"id":"8439142","name":"Bhagwanpur","district":"Saran","inCorr":true,"corrDist":0,"elevation":6.9},"geometry":{"type":"Point","coordinates":[84.8918,26.1902]}},{"type":"Feature","properties":{"id":"10812227","name":"Maksudpur","district":"Saran","inCorr":true,"corrDist":0,"elevation":4.3},"geometry":{"type":"Point","coordinates":[84.964,25.9926]}},{"type":"Feature","properties":{"id":"10812231","name":"Basatpur","district":"Saran","inCorr":true,"corrDist":0,"elevation":4.3},"geometry":{"type":"Point","coordinates":[84.9676,25.9907]}},{"type":"Feature","properties":{"id":"10812234","name":"Naukarha Chhatar","district":"Saran","inCorr":true,"corrDist":0,"elevation":5.4},"geometry":{"type":"Point","coordinates":[84.9834,25.9938]}},{"type":"Feature","properties":{"id":"10812235","name":"Hajarpur","district":"Saran","inCorr":true,"corrDist":0,"elevation":6.3},"geometry":{"type":"Point","coordinates":[84.9952,25.9966]}},{"type":"Feature","properties":{"id":"10812236","name":"Mahesh Chhapra","district":"Saran","inCorr":true,"corrDist":0,"elevation":4.6},"geometry":{"type":"Point","coordinates":[84.9993,25.9845]}},{"type":"Feature","properties":{"id":"10816705","name":"Bhandarwa Majhar","district":"Pashchim Champaran","inCorr":true,"corrDist":0,"elevation":3.8},"geometry":{"type":"Point","coordinates":[84.1602,26.9849]}},{"type":"Feature","properties":{"id":"10817005","name":"Barariha","district":"Pashchim Champaran","inCorr":true,"corrDist":0,"elevation":5.7},"geometry":{"type":"Point","coordinates":[84.1806,26.9202]}},{"type":"Feature","properties":{"id":"10817027","name":"Raipurwa","district":"Pashchim Champaran","inCorr":true,"corrDist":0,"elevation":3.9},"geometry":{"type":"Point","coordinates":[84.1967,26.9983]}},{"type":"Feature","properties":{"id":"10819960","name":"Puraina","district":"Pashchim Champaran","inCorr":true,"corrDist":0,"elevation":2.8},"geometry":{"type":"Point","coordinates":[84.262,26.9018]}},{"type":"Feature","properties":{"id":"10819986","name":"Gardahia","district":"Pashchim Champaran","inCorr":true,"corrDist":0,"elevation":8.5},"geometry":{"type":"Point","coordinates":[84.2954,26.889]}},{"type":"Feature","properties":{"id":"10819987","name":"Piparpanti","district":"Pashchim Champaran","inCorr":true,"corrDist":0,"elevation":4.6},"geometry":{"type":"Point","coordinates":[84.2798,26.8896]}},{"type":"Feature","properties":{"id":"10819988","name":"Bharthapatti","district":"Pashchim Champaran","inCorr":true,"corrDist":0,"elevation":5},"geometry":{"type":"Point","coordinates":[84.2972,26.8845]}},{"type":"Feature","properties":{"id":"10819989","name":"Dhabelwa","district":"Pashchim Champaran","inCorr":true,"corrDist":0,"elevation":5.5},"geometry":{"type":"Point","coordinates":[84.3112,26.8719]}},{"type":"Feature","properties":{"id":"10820006","name":"Khutwania","district":"Pashchim Champaran","inCorr":true,"corrDist":0,"elevation":3.1},"geometry":{"type":"Point","coordinates":[84.3059,26.863]}},{"type":"Feature","properties":{"id":"10820008","name":"Gajna","district":"Pashchim Champaran","inCorr":true,"corrDist":0,"elevation":1.5},"geometry":{"type":"Point","coordinates":[84.3184,26.8542]}},{"type":"Feature","properties":{"id":"10820024","name":"Kursaha","district":"Pashchim Champaran","inCorr":true,"corrDist":0,"elevation":3.7},"geometry":{"type":"Point","coordinates":[84.2778,26.8315]}},{"type":"Feature","properties":{"id":"10820025","name":"Kharkhuta Ramnagar","district":"Pashchim Champaran","inCorr":true,"corrDist":0,"elevation":3.8},"geometry":{"type":"Point","coordinates":[84.3015,26.8419]}},{"type":"Feature","properties":{"id":"10820042","name":"Srinagar","district":"Pashchim Champaran","inCorr":true,"corrDist":0,"elevation":4.6},"geometry":{"type":"Point","coordinates":[84.3411,26.8079]}},{"type":"Feature","properties":{"id":"10820044","name":"Marpadwa","district":"Pashchim Champaran","inCorr":true,"corrDist":0,"elevation":3.8},"geometry":{"type":"Point","coordinates":[84.3605,26.8037]}},{"type":"Feature","properties":{"id":"10820059","name":"Bhagwanpur","district":"Pashchim Champaran","inCorr":true,"corrDist":0,"elevation":2.5},"geometry":{"type":"Point","coordinates":[84.3563,26.7871]}},{"type":"Feature","properties":{"id":"10820501","name":"Masan Dhab","district":"Pashchim Champaran","inCorr":true,"corrDist":0,"elevation":1.1},"geometry":{"type":"Point","coordinates":[84.3774,26.7425]}},{"type":"Feature","properties":{"id":"10820504","name":"Baijua","district":"Pashchim Champaran","inCorr":true,"corrDist":0,"elevation":1.8},"geometry":{"type":"Point","coordinates":[84.374,26.7194]}},{"type":"Feature","properties":{"id":"10820545","name":"Jagdishpur","district":"Pashchim Champaran","inCorr":true,"corrDist":0,"elevation":4},"geometry":{"type":"Point","coordinates":[84.3944,26.7041]}},{"type":"Feature","properties":{"id":"10820546","name":"Tola Ghusiani","district":"Pashchim Champaran","inCorr":true,"corrDist":0,"elevation":3.3},"geometry":{"type":"Point","coordinates":[84.3921,26.7133]}},{"type":"Feature","properties":{"id":"10820547","name":"Narayanpur","district":"Pashchim Champaran","inCorr":true,"corrDist":0,"elevation":4.3},"geometry":{"type":"Point","coordinates":[84.4037,26.6952]}},{"type":"Feature","properties":{"id":"10820611","name":"Tola Dih Bharauwa","district":"Pashchim Champaran","inCorr":true,"corrDist":0,"elevation":4.6},"geometry":{"type":"Point","coordinates":[84.3589,26.6824]}},{"type":"Feature","properties":{"id":"10820612","name":"Birwat Kundaulia","district":"Kushinagar","inCorr":true,"corrDist":0,"elevation":0},"geometry":{"type":"Point","coordinates":[84.362,26.6686]}},{"type":"Feature","properties":{"id":"10820729","name":"Narayanpur","district":"Kushinagar","inCorr":true,"corrDist":0,"elevation":2.4},"geometry":{"type":"Point","coordinates":[84.3988,26.6531]}},{"type":"Feature","properties":{"id":"10820848","name":"Rajman","district":"Kushinagar","inCorr":true,"corrDist":0,"elevation":2.4},"geometry":{"type":"Point","coordinates":[84.4059,26.626]}},{"type":"Feature","properties":{"id":"10820949","name":"Harpur","district":"Gopalganj","inCorr":true,"corrDist":0,"elevation":-1.2},"geometry":{"type":"Point","coordinates":[84.399,26.6099]}},{"type":"Feature","properties":{"id":"10821293","name":"Rampur Tengrahi","district":"Gopalganj","inCorr":true,"corrDist":0,"elevation":4.8},"geometry":{"type":"Point","coordinates":[84.4481,26.5919]}},{"type":"Feature","properties":{"id":"10821297","name":"Bhagwanpur","district":"Pashchim Champaran","inCorr":true,"corrDist":0,"elevation":5.5},"geometry":{"type":"Point","coordinates":[84.4293,26.6188]}},{"type":"Feature","properties":{"id":"10821298","name":"Panditwa Diara","district":"Pashchim Champaran","inCorr":true,"corrDist":0,"elevation":2.2},"geometry":{"type":"Point","coordinates":[84.4343,26.6475]}},{"type":"Feature","properties":{"id":"10821309","name":"Dih Bharauwa","district":"Pashchim Champaran","inCorr":true,"corrDist":0,"elevation":1.6},"geometry":{"type":"Point","coordinates":[84.4266,26.6577]}},{"type":"Feature","properties":{"id":"10821361","name":"Jolaha","district":"","inCorr":true,"corrDist":0,"elevation":1.6},"geometry":{"type":"Point","coordinates":[84.4109,26.6336]}},{"type":"Feature","properties":{"id":"10822231","name":"Syampur Kotraha","district":"Pashchim Champaran","inCorr":true,"corrDist":0,"elevation":5.7},"geometry":{"type":"Point","coordinates":[84.5013,26.623]}},{"type":"Feature","properties":{"id":"10822234","name":"Bairia","district":"Pashchim Champaran","inCorr":true,"corrDist":0,"elevation":7.3},"geometry":{"type":"Point","coordinates":[84.5171,26.6126]}},{"type":"Feature","properties":{"id":"10822235","name":"Rekha Sarea","district":"Purba Champaran","inCorr":true,"corrDist":0,"elevation":4},"geometry":{"type":"Point","coordinates":[84.5303,26.6152]}},{"type":"Feature","properties":{"id":"10822236","name":"Bharwaliya","district":"Purba Champaran","inCorr":true,"corrDist":0,"elevation":4.7},"geometry":{"type":"Point","coordinates":[84.5355,26.6108]}},{"type":"Feature","properties":{"id":"10822250","name":"Majhariya","district":"Purba Champaran","inCorr":true,"corrDist":0,"elevation":6},"geometry":{"type":"Point","coordinates":[84.5375,26.596]}},{"type":"Feature","properties":{"id":"10822260","name":"Raktu","district":"Purba Champaran","inCorr":true,"corrDist":0,"elevation":6.9},"geometry":{"type":"Point","coordinates":[84.5324,26.5708]}},{"type":"Feature","properties":{"id":"10822262","name":"Barharwa","district":"Purba Champaran","inCorr":false,"corrDist":0.08,"elevation":8.5},"geometry":{"type":"Point","coordinates":[84.5504,26.5579]}},{"type":"Feature","properties":{"id":"10822265","name":"Chintamanpur","district":"Purba Champaran","inCorr":true,"corrDist":0,"elevation":6.5},"geometry":{"type":"Point","coordinates":[84.563,26.5299]}},{"type":"Feature","properties":{"id":"10822269","name":"Nagdaha","district":"Purba Champaran","inCorr":true,"corrDist":0,"elevation":7.1},"geometry":{"type":"Point","coordinates":[84.5606,26.5231]}},{"type":"Feature","properties":{"id":"10822272","name":"Misrauliya","district":"Purba Champaran","inCorr":true,"corrDist":0,"elevation":5.9},"geometry":{"type":"Point","coordinates":[84.5734,26.5085]}},{"type":"Feature","properties":{"id":"10822273","name":"Siktia","district":"Purba Champaran","inCorr":true,"corrDist":0,"elevation":6.4},"geometry":{"type":"Point","coordinates":[84.5764,26.503]}},{"type":"Feature","properties":{"id":"10822274","name":"Loknathpur","district":"Purba Champaran","inCorr":true,"corrDist":0,"elevation":6.1},"geometry":{"type":"Point","coordinates":[84.5823,26.5034]}},{"type":"Feature","properties":{"id":"10822507","name":"Panre","district":"Purba Champaran","inCorr":true,"corrDist":0,"elevation":4.4},"geometry":{"type":"Point","coordinates":[84.5879,26.5012]}},{"type":"Feature","properties":{"id":"10825537","name":"Manjhariya","district":"Gopalganj","inCorr":true,"corrDist":0,"elevation":5.2},"geometry":{"type":"Point","coordinates":[84.533,26.4924]}},{"type":"Feature","properties":{"id":"10825963","name":"Tola Kinnu Ram","district":"Gopalganj","inCorr":true,"corrDist":0,"elevation":3.7},"geometry":{"type":"Point","coordinates":[84.5634,26.4716]}},{"type":"Feature","properties":{"id":"10825964","name":"Ban Pande","district":"Purba Champaran","inCorr":true,"corrDist":0,"elevation":3.4},"geometry":{"type":"Point","coordinates":[84.5793,26.4946]}},{"type":"Feature","properties":{"id":"10826218","name":"Baghwar Nizamat","district":"Gopalganj","inCorr":true,"corrDist":0,"elevation":5.7},"geometry":{"type":"Point","coordinates":[84.6312,26.457]}},{"type":"Feature","properties":{"id":"10826219","name":"Sarean","district":"Purba Champaran","inCorr":true,"corrDist":0,"elevation":5.7},"geometry":{"type":"Point","coordinates":[84.6047,26.4971]}},{"type":"Feature","properties":{"id":"10826220","name":"Ghusukwa","district":"Purba Champaran","inCorr":true,"corrDist":0,"elevation":6.3},"geometry":{"type":"Point","coordinates":[84.6002,26.4949]}},{"type":"Feature","properties":{"id":"10826225","name":"Nawada Gobindganj","district":"Purba Champaran","inCorr":true,"corrDist":0,"elevation":7.5},"geometry":{"type":"Point","coordinates":[84.6561,26.4868]}},{"type":"Feature","properties":{"id":"10826229","name":"Imlia","district":"Purba Champaran","inCorr":true,"corrDist":0,"elevation":3.4},"geometry":{"type":"Point","coordinates":[84.6949,26.4812]}},{"type":"Feature","properties":{"id":"10826238","name":"Bariariya Tola Rajpur","district":"Purba Champaran","inCorr":true,"corrDist":0,"elevation":5.9},"geometry":{"type":"Point","coordinates":[84.7043,26.4567]}},{"type":"Feature","properties":{"id":"10826241","name":"Pakri","district":"Purba Champaran","inCorr":false,"corrDist":0.06,"elevation":7.8},"geometry":{"type":"Point","coordinates":[84.7427,26.4155]}},{"type":"Feature","properties":{"id":"10826242","name":"Salehpur","district":"Gopalganj","inCorr":true,"corrDist":0,"elevation":7.1},"geometry":{"type":"Point","coordinates":[84.6942,26.422]}},{"type":"Feature","properties":{"id":"10826243","name":"Jagiraha","district":"Gopalganj","inCorr":false,"corrDist":0.08,"elevation":6.8},"geometry":{"type":"Point","coordinates":[84.6864,26.4191]}},{"type":"Feature","properties":{"id":"10826245","name":"Hasanpur","district":"Gopalganj","inCorr":false,"corrDist":0.08,"elevation":6.3},"geometry":{"type":"Point","coordinates":[84.6692,26.443]}},{"type":"Feature","properties":{"id":"10826248","name":"Amarpura","district":"Gopalganj","inCorr":false,"corrDist":0.17,"elevation":7.7},"geometry":{"type":"Point","coordinates":[84.6903,26.4108]}},{"type":"Feature","properties":{"id":"10826249","name":"Banjaria","district":"Gopalganj","inCorr":true,"corrDist":0,"elevation":8.1},"geometry":{"type":"Point","coordinates":[84.7059,26.4106]}},{"type":"Feature","properties":{"id":"10826252","name":"Rampurwa","district":"Gopalganj","inCorr":true,"corrDist":0,"elevation":6.4},"geometry":{"type":"Point","coordinates":[84.7122,26.3929]}},{"type":"Feature","properties":{"id":"10826253","name":"Dumariya","district":"Purba Champaran","inCorr":false,"corrDist":0.22,"elevation":9.2},"geometry":{"type":"Point","coordinates":[84.7455,26.4066]}},{"type":"Feature","properties":{"id":"10826255","name":"Dumaria","district":"Gopalganj","inCorr":true,"corrDist":0,"elevation":5.1},"geometry":{"type":"Point","coordinates":[84.7216,26.3748]}},{"type":"Feature","properties":{"id":"10826264","name":"Harpur Tengrahi","district":"Gopalganj","inCorr":false,"corrDist":0.17,"elevation":8.2},"geometry":{"type":"Point","coordinates":[84.734,26.3608]}},{"type":"Feature","properties":{"id":"10826271","name":"Pararia Malikan","district":"Gopalganj","inCorr":false,"corrDist":0.3,"elevation":6.3},"geometry":{"type":"Point","coordinates":[84.7412,26.3523]}},{"type":"Feature","properties":{"id":"10826272","name":"Khurampur Birt","district":"Gopalganj","inCorr":false,"corrDist":0.12,"elevation":7.9},"geometry":{"type":"Point","coordinates":[84.7449,26.35]}},{"type":"Feature","properties":{"id":"10826273","name":"Khurampur","district":"Gopalganj","inCorr":false,"corrDist":0.06,"elevation":6.6},"geometry":{"type":"Point","coordinates":[84.7465,26.3474]}},{"type":"Feature","properties":{"id":"10826274","name":"Pararia Nizamt","district":"Gopalganj","inCorr":false,"corrDist":0.17,"elevation":7.1},"geometry":{"type":"Point","coordinates":[84.743,26.346]}},{"type":"Feature","properties":{"id":"10826325","name":"Pakri","district":"Gopalganj","inCorr":false,"corrDist":0.18,"elevation":7.3},"geometry":{"type":"Point","coordinates":[84.7457,26.3554]}},{"type":"Feature","properties":{"id":"10826328","name":"Bishrampur Dubauliya","district":"Gopalganj","inCorr":false,"corrDist":0.24,"elevation":7.3},"geometry":{"type":"Point","coordinates":[84.7342,26.3654]}},{"type":"Feature","properties":{"id":"10826331","name":"Tandaspur","district":"Gopalganj","inCorr":true,"corrDist":0,"elevation":6.7},"geometry":{"type":"Point","coordinates":[84.7382,26.366]}},{"type":"Feature","properties":{"id":"10826332","name":"Satpatia Kalkalahi","district":"Gopalganj","inCorr":true,"corrDist":0,"elevation":4},"geometry":{"type":"Point","coordinates":[84.7483,26.3474]}},{"type":"Feature","properties":{"id":"10828315","name":"Rampurwa","district":"Purba Champaran","inCorr":false,"corrDist":0.19,"elevation":7.6},"geometry":{"type":"Point","coordinates":[84.7525,26.403]}},{"type":"Feature","properties":{"id":"10828335","name":"Saraiya Baduraha","district":"Purba Champaran","inCorr":false,"corrDist":0.13,"elevation":7.1},"geometry":{"type":"Point","coordinates":[84.7567,26.394]}},{"type":"Feature","properties":{"id":"10828337","name":"Bishrampur Dubauliya","district":"Purba Champaran","inCorr":true,"corrDist":0,"elevation":6.3},"geometry":{"type":"Point","coordinates":[84.7681,26.3796]}},{"type":"Feature","properties":{"id":"10828366","name":"Ghoghraha","district":"Purba Champaran","inCorr":true,"corrDist":0,"elevation":3.8},"geometry":{"type":"Point","coordinates":[84.7679,26.3379]}},{"type":"Feature","properties":{"id":"10828367","name":"Khap Pakri","district":"Gopalganj","inCorr":true,"corrDist":0,"elevation":5.8},"geometry":{"type":"Point","coordinates":[84.7557,26.3412]}},{"type":"Feature","properties":{"id":"10828368","name":"Man Tengrahi Basant Chapra","district":"Gopalganj","inCorr":true,"corrDist":0,"elevation":6.2},"geometry":{"type":"Point","coordinates":[84.7482,26.339]}},{"type":"Feature","properties":{"id":"10828369","name":"Dipau","district":"Gopalganj","inCorr":true,"corrDist":0,"elevation":6.7},"geometry":{"type":"Point","coordinates":[84.7511,26.3512]}},{"type":"Feature","properties":{"id":"10828372","name":"Satpatia","district":"Gopalganj","inCorr":true,"corrDist":0,"elevation":6.6},"geometry":{"type":"Point","coordinates":[84.7666,26.3352]}},{"type":"Feature","properties":{"id":"10828373","name":"Basant Chapra","district":"Gopalganj","inCorr":true,"corrDist":0,"elevation":5.2},"geometry":{"type":"Point","coordinates":[84.7535,26.332]}},{"type":"Feature","properties":{"id":"10828374","name":"Man Tengrahi Khap Sokni","district":"Gopalganj","inCorr":true,"corrDist":0,"elevation":6},"geometry":{"type":"Point","coordinates":[84.7552,26.3261]}},{"type":"Feature","properties":{"id":"10828376","name":"Maharani Ugarsain","district":"Gopalganj","inCorr":true,"corrDist":0,"elevation":6.7},"geometry":{"type":"Point","coordinates":[84.7628,26.326]}},{"type":"Feature","properties":{"id":"10828377","name":"Hathiahi","district":"Gopalganj","inCorr":true,"corrDist":0,"elevation":6.9},"geometry":{"type":"Point","coordinates":[84.7683,26.3338]}},{"type":"Feature","properties":{"id":"10828378","name":"Dila Tola","district":"Gopalganj","inCorr":true,"corrDist":0,"elevation":6.6},"geometry":{"type":"Point","coordinates":[84.7736,26.3259]}},{"type":"Feature","properties":{"id":"10828379","name":"Maharani Pandohi","district":"Gopalganj","inCorr":true,"corrDist":0,"elevation":6.4},"geometry":{"type":"Point","coordinates":[84.7725,26.3224]}},{"type":"Feature","properties":{"id":"10828380","name":"Santram","district":"Gopalganj","inCorr":true,"corrDist":0,"elevation":7.9},"geometry":{"type":"Point","coordinates":[84.7658,26.3152]}},{"type":"Feature","properties":{"id":"10828381","name":"Rana Khap","district":"Gopalganj","inCorr":true,"corrDist":0,"elevation":6.4},"geometry":{"type":"Point","coordinates":[84.7699,26.3182]}},{"type":"Feature","properties":{"id":"10828402","name":"Dhekaha","district":"Purba Champaran","inCorr":true,"corrDist":0,"elevation":6.1},"geometry":{"type":"Point","coordinates":[84.8279,26.3031]}},{"type":"Feature","properties":{"id":"10828404","name":"Usri","district":"Gopalganj","inCorr":true,"corrDist":0,"elevation":6.9},"geometry":{"type":"Point","coordinates":[84.7791,26.2987]}},{"type":"Feature","properties":{"id":"10828406","name":"Bandhauli","district":"Gopalganj","inCorr":true,"corrDist":0,"elevation":4.8},"geometry":{"type":"Point","coordinates":[84.8036,26.2892]}},{"type":"Feature","properties":{"id":"10828409","name":"Banhauli Banaura","district":"Gopalganj","inCorr":true,"corrDist":0,"elevation":5.5},"geometry":{"type":"Point","coordinates":[84.7852,26.2825]}},{"type":"Feature","properties":{"id":"10828410","name":"Bahrampur","district":"Gopalganj","inCorr":true,"corrDist":0,"elevation":6.6},"geometry":{"type":"Point","coordinates":[84.8096,26.2787]}},{"type":"Feature","properties":{"id":"10828431","name":"Dhursanda","district":"Gopalganj","inCorr":true,"corrDist":0,"elevation":5.1},"geometry":{"type":"Point","coordinates":[84.8112,26.271]}},{"type":"Feature","properties":{"id":"10828432","name":"Sitalpur","district":"Gopalganj","inCorr":true,"corrDist":0,"elevation":4.5},"geometry":{"type":"Point","coordinates":[84.8116,26.2637]}},{"type":"Feature","properties":{"id":"10828433","name":"Khobharipur","district":"Gopalganj","inCorr":true,"corrDist":0,"elevation":3.9},"geometry":{"type":"Point","coordinates":[84.8237,26.2587]}},{"type":"Feature","properties":{"id":"10828434","name":"Parsauni","district":"Gopalganj","inCorr":true,"corrDist":0,"elevation":4.3},"geometry":{"type":"Point","coordinates":[84.8154,26.2526]}},{"type":"Feature","properties":{"id":"10828435","name":"Narwar","district":"Gopalganj","inCorr":true,"corrDist":0,"elevation":5.3},"geometry":{"type":"Point","coordinates":[84.8307,26.2535]}},{"type":"Feature","properties":{"id":"10828438","name":"Ogar","district":"Muzaffarpur","inCorr":true,"corrDist":0,"elevation":4.7},"geometry":{"type":"Point","coordinates":[84.888,26.2602]}},{"type":"Feature","properties":{"id":"10828439","name":"Ahir","district":"Muzaffarpur","inCorr":true,"corrDist":0,"elevation":4},"geometry":{"type":"Point","coordinates":[84.8888,26.258]}},{"type":"Feature","properties":{"id":"10828610","name":"Fatehpur","district":"Gopalganj","inCorr":true,"corrDist":0,"elevation":4.7},"geometry":{"type":"Point","coordinates":[84.7567,26.3368]}},{"type":"Feature","properties":{"id":"10828615","name":"Mallahi","district":"Muzaffarpur","inCorr":true,"corrDist":0,"elevation":6.2},"geometry":{"type":"Point","coordinates":[84.8998,26.2504]}},{"type":"Feature","properties":{"id":"10828944","name":"Maria","district":"Saran","inCorr":true,"corrDist":0,"elevation":5.7},"geometry":{"type":"Point","coordinates":[84.8998,26.1227]}},{"type":"Feature","properties":{"id":"10828948","name":"Kondh","district":"Saran","inCorr":true,"corrDist":0,"elevation":5.8},"geometry":{"type":"Point","coordinates":[84.9131,26.1215]}},{"type":"Feature","properties":{"id":"10828953","name":"Basahiya","district":"Saran","inCorr":true,"corrDist":0,"elevation":5.9},"geometry":{"type":"Point","coordinates":[84.8856,26.1582]}},{"type":"Feature","properties":{"id":"10828954","name":"Sonbarsa","district":"Saran","inCorr":true,"corrDist":0,"elevation":6.9},"geometry":{"type":"Point","coordinates":[84.8881,26.1596]}},{"type":"Feature","properties":{"id":"10828955","name":"Salempur","district":"Saran","inCorr":true,"corrDist":0,"elevation":5.1},"geometry":{"type":"Point","coordinates":[84.8885,26.1688]}},{"type":"Feature","properties":{"id":"10828956","name":"Murwa Basahiya","district":"Saran","inCorr":true,"corrDist":0,"elevation":5},"geometry":{"type":"Point","coordinates":[84.8922,26.1517]}},{"type":"Feature","properties":{"id":"10828965","name":"Bhoraha","district":"Saran","inCorr":true,"corrDist":0,"elevation":6.2},"geometry":{"type":"Point","coordinates":[84.8978,26.1353]}},{"type":"Feature","properties":{"id":"10828969","name":"Rampur Rudar","district":"Saran","inCorr":true,"corrDist":0,"elevation":6.8},"geometry":{"type":"Point","coordinates":[84.905,26.1338]}},{"type":"Feature","properties":{"id":"10828970","name":"Ubhwa","district":"Saran","inCorr":true,"corrDist":0,"elevation":7.3},"geometry":{"type":"Point","coordinates":[84.8966,26.1426]}},{"type":"Feature","properties":{"id":"10828971","name":"Ubhwa Saraunja","district":"Saran","inCorr":true,"corrDist":0,"elevation":5.7},"geometry":{"type":"Point","coordinates":[84.893,26.1467]}},{"type":"Feature","properties":{"id":"10828987","name":"Mahabir Panre","district":"Saran","inCorr":true,"corrDist":0,"elevation":4.3},"geometry":{"type":"Point","coordinates":[84.8757,26.2069]}},{"type":"Feature","properties":{"id":"10828988","name":"Chakia","district":"Saran","inCorr":true,"corrDist":0,"elevation":5.9},"geometry":{"type":"Point","coordinates":[84.8768,26.2148]}},{"type":"Feature","properties":{"id":"10828990","name":"Karchulia","district":"Saran","inCorr":true,"corrDist":0,"elevation":6.2},"geometry":{"type":"Point","coordinates":[84.8853,26.1995]}},{"type":"Feature","properties":{"id":"10828991","name":"Pirthamipur","district":"Saran","inCorr":true,"corrDist":0,"elevation":6},"geometry":{"type":"Point","coordinates":[84.8938,26.1838]}},{"type":"Feature","properties":{"id":"10828995","name":"Fatehpur","district":"Saran","inCorr":true,"corrDist":0,"elevation":6.9},"geometry":{"type":"Point","coordinates":[84.8877,26.1799]}},{"type":"Feature","properties":{"id":"10829000","name":"Lala","district":"Gopalganj","inCorr":true,"corrDist":0,"elevation":6},"geometry":{"type":"Point","coordinates":[84.8595,26.2271]}},{"type":"Feature","properties":{"id":"10829007","name":"Pearepur","district":"Gopalganj","inCorr":true,"corrDist":0,"elevation":6.9},"geometry":{"type":"Point","coordinates":[84.8782,26.2253]}},{"type":"Feature","properties":{"id":"10829008","name":"Jadopur","district":"Gopalganj","inCorr":true,"corrDist":0,"elevation":4.6},"geometry":{"type":"Point","coordinates":[84.8629,26.224]}},{"type":"Feature","properties":{"id":"10829011","name":"Khaira Asha","district":"Gopalganj","inCorr":true,"corrDist":0,"elevation":5.7},"geometry":{"type":"Point","coordinates":[84.8785,26.2216]}},{"type":"Feature","properties":{"id":"10829069","name":"Madhopur Buzurg","district":"Muzaffarpur","inCorr":true,"corrDist":0,"elevation":5.9},"geometry":{"type":"Point","coordinates":[84.9587,26.132]}},{"type":"Feature","properties":{"id":"10829074","name":"Chak Deona","district":"Muzaffarpur","inCorr":true,"corrDist":0,"elevation":5.8},"geometry":{"type":"Point","coordinates":[84.9561,26.1212]}},{"type":"Feature","properties":{"id":"10829075","name":"Singahi","district":"Muzaffarpur","inCorr":false,"corrDist":0.24,"elevation":7},"geometry":{"type":"Point","coordinates":[84.9618,26.1151]}},{"type":"Feature","properties":{"id":"10829078","name":"Sanpatia","district":"Muzaffarpur","inCorr":true,"corrDist":0,"elevation":5.9},"geometry":{"type":"Point","coordinates":[84.9268,26.1081]}},{"type":"Feature","properties":{"id":"10829096","name":"Bijaipur","district":"Muzaffarpur","inCorr":true,"corrDist":0,"elevation":5.1},"geometry":{"type":"Point","coordinates":[84.9748,26.0893]}},{"type":"Feature","properties":{"id":"10829097","name":"Karamwari","district":"Muzaffarpur","inCorr":true,"corrDist":0,"elevation":6.7},"geometry":{"type":"Point","coordinates":[84.9953,26.0837]}},{"type":"Feature","properties":{"id":"10829098","name":"Madan Chhapra","district":"Muzaffarpur","inCorr":true,"corrDist":0,"elevation":5.6},"geometry":{"type":"Point","coordinates":[84.9714,26.0767]}},{"type":"Feature","properties":{"id":"10829100","name":"Pandah","district":"Muzaffarpur","inCorr":true,"corrDist":0,"elevation":4.8},"geometry":{"type":"Point","coordinates":[84.992,26.0955]}},{"type":"Feature","properties":{"id":"10829101","name":"Gokhula Rupauli","district":"Muzaffarpur","inCorr":false,"corrDist":0.06,"elevation":6.2},"geometry":{"type":"Point","coordinates":[84.9858,26.1049]}},{"type":"Feature","properties":{"id":"10829103","name":"Austi","district":"Muzaffarpur","inCorr":false,"corrDist":0.12,"elevation":8.3},"geometry":{"type":"Point","coordinates":[84.9696,26.1116]}},{"type":"Feature","properties":{"id":"10829106","name":"Tola Bhikam Rai","district":"Saran","inCorr":true,"corrDist":0,"elevation":5.9},"geometry":{"type":"Point","coordinates":[84.9214,26.1043]}},{"type":"Feature","properties":{"id":"10829112","name":"Fatehabad","district":"Muzaffarpur","inCorr":true,"corrDist":0,"elevation":5.9},"geometry":{"type":"Point","coordinates":[84.9722,26.0652]}},{"type":"Feature","properties":{"id":"10829113","name":"Kataro","district":"Muzaffarpur","inCorr":true,"corrDist":0,"elevation":4.7},"geometry":{"type":"Point","coordinates":[84.9895,26.0738]}},{"type":"Feature","properties":{"id":"10829114","name":"Ghayaspur","district":"Muzaffarpur","inCorr":true,"corrDist":0,"elevation":5.1},"geometry":{"type":"Point","coordinates":[84.9892,26.0593]}},{"type":"Feature","properties":{"id":"10829135","name":"Dumri Shah Muhammad","district":"Muzaffarpur","inCorr":true,"corrDist":0,"elevation":4.9},"geometry":{"type":"Point","coordinates":[84.9984,26.0271]}},{"type":"Feature","properties":{"id":"10994486","name":"Lagunia","district":"Saran","inCorr":true,"corrDist":0,"elevation":4.5},"geometry":{"type":"Point","coordinates":[85.0004,25.9982]}},{"type":"Feature","properties":{"id":"11010640","name":"Baghakol","district":"Saran","inCorr":true,"corrDist":0,"elevation":6.1},"geometry":{"type":"Point","coordinates":[85.0007,25.9914]}},{"type":"Feature","properties":{"id":"11010641","name":"Khalpura","district":"Saran","inCorr":true,"corrDist":0,"elevation":5.5},"geometry":{"type":"Point","coordinates":[85.0019,25.984]}},{"type":"Feature","properties":{"id":"11010642","name":"Dih Seraman","district":"Saran","inCorr":true,"corrDist":0,"elevation":6.8},"geometry":{"type":"Point","coordinates":[85.0194,25.986]}},{"type":"Feature","properties":{"id":"11010643","name":"Barhi Chak","district":"Saran","inCorr":true,"corrDist":0,"elevation":5},"geometry":{"type":"Point","coordinates":[85.028,25.9874]}},{"type":"Feature","properties":{"id":"11010644","name":"Parsotimpur","district":"Saran","inCorr":true,"corrDist":0,"elevation":4.7},"geometry":{"type":"Point","coordinates":[85.0094,25.9834]}},{"type":"Feature","properties":{"id":"11010647","name":"Chanila","district":"Saran","inCorr":true,"corrDist":0,"elevation":6.1},"geometry":{"type":"Point","coordinates":[85.0214,25.972]}},{"type":"Feature","properties":{"id":"11010648","name":"Dih","district":"Saran","inCorr":true,"corrDist":0,"elevation":4.9},"geometry":{"type":"Point","coordinates":[85.0271,25.978]}},{"type":"Feature","properties":{"id":"11010649","name":"Patmanawar","district":"Saran","inCorr":true,"corrDist":0,"elevation":3.3},"geometry":{"type":"Point","coordinates":[85.0254,25.9815]}},{"type":"Feature","properties":{"id":"11010651","name":"Dadanpur","district":"Saran","inCorr":true,"corrDist":0,"elevation":6.8},"geometry":{"type":"Point","coordinates":[85.0387,25.9859]}},{"type":"Feature","properties":{"id":"11010652","name":"Haranbandh","district":"Saran","inCorr":true,"corrDist":0,"elevation":6.3},"geometry":{"type":"Point","coordinates":[85.0482,25.9831]}},{"type":"Feature","properties":{"id":"11010653","name":"Tahara","district":"Saran","inCorr":true,"corrDist":0,"elevation":5.8},"geometry":{"type":"Point","coordinates":[85.0541,25.9774]}},{"type":"Feature","properties":{"id":"11010654","name":"Oli Miankatola","district":"Saran","inCorr":true,"corrDist":0,"elevation":4.5},"geometry":{"type":"Point","coordinates":[85.0379,25.9759]}},{"type":"Feature","properties":{"id":"11010655","name":"Gori Rautkatola","district":"Saran","inCorr":true,"corrDist":0,"elevation":4.8},"geometry":{"type":"Point","coordinates":[85.0326,25.9693]}},{"type":"Feature","properties":{"id":"11010656","name":"Shivo Mahantkatola","district":"Saran","inCorr":true,"corrDist":0,"elevation":6.2},"geometry":{"type":"Point","coordinates":[85.0461,25.9736]}},{"type":"Feature","properties":{"id":"11010657","name":"Chandpatti","district":"Saran","inCorr":true,"corrDist":0,"elevation":7.4},"geometry":{"type":"Point","coordinates":[85.0574,25.972]}},{"type":"Feature","properties":{"id":"11010658","name":"Ajodhpur","district":"Muzaffarpur","inCorr":true,"corrDist":0,"elevation":6.3},"geometry":{"type":"Point","coordinates":[85.04,26.0006]}},{"type":"Feature","properties":{"id":"11010659","name":"Sohilapatti","district":"Muzaffarpur","inCorr":true,"corrDist":0,"elevation":5.3},"geometry":{"type":"Point","coordinates":[85.0553,25.9974]}},{"type":"Feature","properties":{"id":"11010669","name":"Chak Pitambar","district":"Vaishali","inCorr":true,"corrDist":0,"elevation":6.6},"geometry":{"type":"Point","coordinates":[85.0781,25.9687]}},{"type":"Feature","properties":{"id":"11010671","name":"Rukanbada","district":"Saran","inCorr":true,"corrDist":0,"elevation":6.1},"geometry":{"type":"Point","coordinates":[85.058,25.9683]}},{"type":"Feature","properties":{"id":"11010693","name":"Ahir","district":"Saran","inCorr":true,"corrDist":0,"elevation":4.1},"geometry":{"type":"Point","coordinates":[85.042,25.9605]}},{"type":"Feature","properties":{"id":"11010694","name":"Masuriaganj","district":"Saran","inCorr":true,"corrDist":0,"elevation":5.8},"geometry":{"type":"Point","coordinates":[85.0569,25.9447]}},{"type":"Feature","properties":{"id":"11010696","name":"Kohra","district":"Saran","inCorr":true,"corrDist":0,"elevation":7},"geometry":{"type":"Point","coordinates":[85.0567,25.9336]}},{"type":"Feature","properties":{"id":"11010697","name":"Chak Allahdad","district":"Vaishali","inCorr":false,"corrDist":0.27,"elevation":9.1},"geometry":{"type":"Point","coordinates":[85.086,25.9505]}},{"type":"Feature","properties":{"id":"11010698","name":"Phular","district":"Vaishali","inCorr":false,"corrDist":0.12,"elevation":9.2},"geometry":{"type":"Point","coordinates":[85.0816,25.9657]}},{"type":"Feature","properties":{"id":"11010699","name":"Simra","district":"Vaishali","inCorr":false,"corrDist":0.22,"elevation":6},"geometry":{"type":"Point","coordinates":[85.0785,25.9606]}},{"type":"Feature","properties":{"id":"11010701","name":"Husainpur","district":"Vaishali","inCorr":true,"corrDist":0,"elevation":7.1},"geometry":{"type":"Point","coordinates":[85.0939,25.9567]}},{"type":"Feature","properties":{"id":"11010702","name":"Allahdadpur","district":"Vaishali","inCorr":true,"corrDist":0,"elevation":7.7},"geometry":{"type":"Point","coordinates":[85.0839,25.9425]}},{"type":"Feature","properties":{"id":"11010704","name":"Habibpur","district":"Vaishali","inCorr":false,"corrDist":0.24,"elevation":7.2},"geometry":{"type":"Point","coordinates":[85.096,25.9484]}},{"type":"Feature","properties":{"id":"11010733","name":"Hasanpura","district":"Saran","inCorr":true,"corrDist":0,"elevation":8.3},"geometry":{"type":"Point","coordinates":[85.0742,25.9297]}},{"type":"Feature","properties":{"id":"11010734","name":"Sultanpur","district":"Saran","inCorr":true,"corrDist":0,"elevation":7.6},"geometry":{"type":"Point","coordinates":[85.071,25.9291]}},{"type":"Feature","properties":{"id":"11010735","name":"Barwe","district":"Saran","inCorr":true,"corrDist":0,"elevation":6.9},"geometry":{"type":"Point","coordinates":[85.0742,25.9271]}},{"type":"Feature","properties":{"id":"11010741","name":"Balhatola","district":"Saran","inCorr":true,"corrDist":0,"elevation":6.9},"geometry":{"type":"Point","coordinates":[85.0817,25.9133]}},{"type":"Feature","properties":{"id":"11010742","name":"Murahi","district":"Saran","inCorr":true,"corrDist":0,"elevation":3.5},"geometry":{"type":"Point","coordinates":[85.087,25.9218]}},{"type":"Feature","properties":{"id":"11010743","name":"Baligaon","district":"Saran","inCorr":true,"corrDist":0,"elevation":5.9},"geometry":{"type":"Point","coordinates":[85.0922,25.9169]}},{"type":"Feature","properties":{"id":"11010744","name":"Bahlolpur Jalaluddin","district":"Saran","inCorr":true,"corrDist":0,"elevation":0.5},"geometry":{"type":"Point","coordinates":[85.0979,25.906]}},{"type":"Feature","properties":{"id":"11010745","name":"Bandi Chhapra","district":"Saran","inCorr":true,"corrDist":0,"elevation":6.8},"geometry":{"type":"Point","coordinates":[85.0848,25.9063]}},{"type":"Feature","properties":{"id":"11010746","name":"Chak Rasul","district":"Vaishali","inCorr":true,"corrDist":0,"elevation":6.1},"geometry":{"type":"Point","coordinates":[85.1054,25.9328]}},{"type":"Feature","properties":{"id":"11010747","name":"Bariarpur","district":"Vaishali","inCorr":true,"corrDist":0,"elevation":5.8},"geometry":{"type":"Point","coordinates":[85.0969,25.9296]}},{"type":"Feature","properties":{"id":"11010748","name":"Almanpur","district":"Vaishali","inCorr":false,"corrDist":0.08,"elevation":6.7},"geometry":{"type":"Point","coordinates":[85.1159,25.9267]}},{"type":"Feature","properties":{"id":"11010749","name":"Hasanpur","district":"Vaishali","inCorr":false,"corrDist":0.47,"elevation":7.4},"geometry":{"type":"Point","coordinates":[85.1174,25.9314]}},{"type":"Feature","properties":{"id":"11010752","name":"Salempur","district":"Vaishali","inCorr":false,"corrDist":0.42,"elevation":8.5},"geometry":{"type":"Point","coordinates":[85.1221,25.9201]}},{"type":"Feature","properties":{"id":"11010756","name":"Bailka","district":"Vaishali","inCorr":false,"corrDist":0.85,"elevation":7.9},"geometry":{"type":"Point","coordinates":[85.1281,25.9142]}},{"type":"Feature","properties":{"id":"11010757","name":"Jafrabad","district":"Vaishali","inCorr":false,"corrDist":0.3,"elevation":7.2},"geometry":{"type":"Point","coordinates":[85.1244,25.9066]}},{"type":"Feature","properties":{"id":"11010778","name":"Bhikhari Chhapra","district":"Saran","inCorr":true,"corrDist":0,"elevation":6.4},"geometry":{"type":"Point","coordinates":[85.0857,25.9001]}},{"type":"Feature","properties":{"id":"11010779","name":"Babhanganwan","district":"Saran","inCorr":true,"corrDist":0,"elevation":6.3},"geometry":{"type":"Point","coordinates":[85.079,25.9055]}},{"type":"Feature","properties":{"id":"11010781","name":"Bahlolpur Kalu","district":"Saran","inCorr":true,"corrDist":0,"elevation":4.2},"geometry":{"type":"Point","coordinates":[85.101,25.9008]}},{"type":"Feature","properties":{"id":"11010782","name":"Mankimanmal","district":"Saran","inCorr":true,"corrDist":0,"elevation":10.3},"geometry":{"type":"Point","coordinates":[85.0932,25.8931]}},{"type":"Feature","properties":{"id":"11010783","name":"Chakia","district":"Saran","inCorr":true,"corrDist":0,"elevation":6.1},"geometry":{"type":"Point","coordinates":[85.0963,25.8868]}},{"type":"Feature","properties":{"id":"11010788","name":"Khanjahan Chak","district":"Vaishali","inCorr":false,"corrDist":0.18,"elevation":7.1},"geometry":{"type":"Point","coordinates":[85.119,25.8926]}},{"type":"Feature","properties":{"id":"11010789","name":"Khajauti","district":"Vaishali","inCorr":false,"corrDist":0.06,"elevation":7.7},"geometry":{"type":"Point","coordinates":[85.1183,25.8863]}},{"type":"Feature","properties":{"id":"11010790","name":"Keshopur","district":"Vaishali","inCorr":false,"corrDist":0.12,"elevation":7.7},"geometry":{"type":"Point","coordinates":[85.1192,25.8833]}},{"type":"Feature","properties":{"id":"11010791","name":"Etwarpur Nizamat","district":"Vaishali","inCorr":false,"corrDist":1.78,"elevation":6.2},"geometry":{"type":"Point","coordinates":[85.1371,25.8824]}},{"type":"Feature","properties":{"id":"11010792","name":"Tajpur","district":"Vaishali","inCorr":false,"corrDist":0.13,"elevation":7.7},"geometry":{"type":"Point","coordinates":[85.1212,25.8793]}},{"type":"Feature","properties":{"id":"11010793","name":"Pirapur","district":"Vaishali","inCorr":false,"corrDist":0.3,"elevation":8.1},"geometry":{"type":"Point","coordinates":[85.1269,25.8694]}},{"type":"Feature","properties":{"id":"11010794","name":"Jalalpur Gopi Malik","district":"Vaishali","inCorr":false,"corrDist":2.36,"elevation":7.2},"geometry":{"type":"Point","coordinates":[85.1487,25.8764]}},{"type":"Feature","properties":{"id":"11010796","name":"Yusufpur","district":"Vaishali","inCorr":false,"corrDist":1.97,"elevation":8.8},"geometry":{"type":"Point","coordinates":[85.1379,25.8896]}},{"type":"Feature","properties":{"id":"11010797","name":"Sarandia","district":"Vaishali","inCorr":false,"corrDist":1.44,"elevation":8.2},"geometry":{"type":"Point","coordinates":[85.1333,25.8955]}},{"type":"Feature","properties":{"id":"11010826","name":"Barwe","district":"Saran","inCorr":true,"corrDist":0,"elevation":6.4},"geometry":{"type":"Point","coordinates":[85.104,25.864]}},{"type":"Feature","properties":{"id":"11010827","name":"Karam Chak","district":"Saran","inCorr":true,"corrDist":0,"elevation":8.1},"geometry":{"type":"Point","coordinates":[85.109,25.859]}},{"type":"Feature","properties":{"id":"11010828","name":"Edilpur","district":"Saran","inCorr":true,"corrDist":0,"elevation":8.5},"geometry":{"type":"Point","coordinates":[85.1197,25.8574]}},{"type":"Feature","properties":{"id":"11010829","name":"Turki","district":"Saran","inCorr":true,"corrDist":0,"elevation":9.7},"geometry":{"type":"Point","coordinates":[85.1242,25.8531]}},{"type":"Feature","properties":{"id":"11010830","name":"Belahar Fattu","district":"Saran","inCorr":true,"corrDist":0,"elevation":7.3},"geometry":{"type":"Point","coordinates":[85.1349,25.8464]}},{"type":"Feature","properties":{"id":"11010832","name":"Jhauatola","district":"Saran","inCorr":true,"corrDist":0,"elevation":6.7},"geometry":{"type":"Point","coordinates":[85.1223,25.8496]}},{"type":"Feature","properties":{"id":"11010833","name":"Darihara Chaturbhuj","district":"Saran","inCorr":true,"corrDist":0,"elevation":6.1},"geometry":{"type":"Point","coordinates":[85.1291,25.8468]}},{"type":"Feature","properties":{"id":"11010834","name":"Konhwa","district":"Saran","inCorr":false,"corrDist":0.18,"elevation":6.4},"geometry":{"type":"Point","coordinates":[85.1451,25.8414]}},{"type":"Feature","properties":{"id":"11010835","name":"Jalalpur","district":"Vaishali","inCorr":false,"corrDist":1.95,"elevation":9},"geometry":{"type":"Point","coordinates":[85.1519,25.8695]}},{"type":"Feature","properties":{"id":"11010858","name":"Darihara Nisakh","district":"Saran","inCorr":false,"corrDist":0.38,"elevation":9.2},"geometry":{"type":"Point","coordinates":[85.1444,25.8348]}},{"type":"Feature","properties":{"id":"11010859","name":"Darihara Bhual","district":"Saran","inCorr":false,"corrDist":0.67,"elevation":7.9},"geometry":{"type":"Point","coordinates":[85.1436,25.8307]}},{"type":"Feature","properties":{"id":"11010880","name":"Mangarpal Naran","district":"Saran","inCorr":false,"corrDist":0.3,"elevation":7.9},"geometry":{"type":"Point","coordinates":[85.1561,25.7947]}},{"type":"Feature","properties":{"id":"11010881","name":"Darbesha","district":"Saran","inCorr":false,"corrDist":0.48,"elevation":7.2},"geometry":{"type":"Point","coordinates":[85.1538,25.8058]}},{"type":"Feature","properties":{"id":"11010910","name":"Dariapur","district":"Saran","inCorr":false,"corrDist":0.18,"elevation":9.5},"geometry":{"type":"Point","coordinates":[85.1691,25.764]}},{"type":"Feature","properties":{"id":"11010911","name":"Chhapra","district":"Saran","inCorr":false,"corrDist":0.24,"elevation":10.2},"geometry":{"type":"Point","coordinates":[85.1687,25.7578]}},{"type":"Feature","properties":{"id":"11010912","name":"Akilpur","district":"Saran","inCorr":false,"corrDist":0.19,"elevation":8.9},"geometry":{"type":"Point","coordinates":[85.1681,25.7691]}},{"type":"Feature","properties":{"id":"11010913","name":"Barua","district":"Saran","inCorr":false,"corrDist":0.12,"elevation":9.8},"geometry":{"type":"Point","coordinates":[85.1665,25.7786]}},{"type":"Feature","properties":{"id":"11010914","name":"Harauli Fatehpur","district":"Vaishali","inCorr":false,"corrDist":1.16,"elevation":9.7},"geometry":{"type":"Point","coordinates":[85.1919,25.7655]}},{"type":"Feature","properties":{"id":"11010915","name":"Jazira Ismailpur","district":"Vaishali","inCorr":false,"corrDist":1.15,"elevation":9.1},"geometry":{"type":"Point","coordinates":[85.1919,25.7574]}},{"type":"Feature","properties":{"id":"11010916","name":"Manua","district":"Vaishali","inCorr":false,"corrDist":0.67,"elevation":9},"geometry":{"type":"Point","coordinates":[85.2016,25.7554]}},{"type":"Feature","properties":{"id":"11010917","name":"Arazi Shahbazpur","district":"Vaishali","inCorr":false,"corrDist":0.43,"elevation":7.2},"geometry":{"type":"Point","coordinates":[85.2003,25.7738]}},{"type":"Feature","properties":{"id":"11010918","name":"Chak Nur","district":"Vaishali","inCorr":false,"corrDist":0.17,"elevation":6.3},"geometry":{"type":"Point","coordinates":[85.2036,25.774]}},{"type":"Feature","properties":{"id":"11010919","name":"Daulatpur Chandi","district":"Vaishali","inCorr":false,"corrDist":0.32,"elevation":8.2},"geometry":{"type":"Point","coordinates":[85.1955,25.7814]}},{"type":"Feature","properties":{"id":"11010927","name":"Kushalpur","district":"Saran","inCorr":false,"corrDist":0.12,"elevation":9.1},"geometry":{"type":"Point","coordinates":[85.1673,25.7839]}},{"type":"Feature","properties":{"id":"11010928","name":"Mangarpal Murtaza","district":"Saran","inCorr":false,"corrDist":0.51,"elevation":6.8},"geometry":{"type":"Point","coordinates":[85.1621,25.7932]}},{"type":"Feature","properties":{"id":"11010929","name":"Dhanuki","district":"Vaishali","inCorr":false,"corrDist":0.3,"elevation":7.6},"geometry":{"type":"Point","coordinates":[85.1873,25.8032]}},{"type":"Feature","properties":{"id":"11010930","name":"Balai Chak","district":"Vaishali","inCorr":false,"corrDist":0.59,"elevation":8.4},"geometry":{"type":"Point","coordinates":[85.1784,25.8152]}},{"type":"Feature","properties":{"id":"11010939","name":"Ghataro Chaturbhuj","district":"Vaishali","inCorr":false,"corrDist":0.6,"elevation":9.2},"geometry":{"type":"Point","coordinates":[85.1862,25.8146]}},{"type":"Feature","properties":{"id":"11010940","name":"Basanta","district":"Vaishali","inCorr":false,"corrDist":0.42,"elevation":8.7},"geometry":{"type":"Point","coordinates":[85.1741,25.8238]}},{"type":"Feature","properties":{"id":"11010941","name":"Namidih","district":"Vaishali","inCorr":false,"corrDist":0.8,"elevation":6.9},"geometry":{"type":"Point","coordinates":[85.1806,25.8321]}},{"type":"Feature","properties":{"id":"11010955","name":"Pujhian","district":"Vaishali","inCorr":false,"corrDist":0.54,"elevation":8.1},"geometry":{"type":"Point","coordinates":[85.179,25.8412]}},{"type":"Feature","properties":{"id":"11010956","name":"Basanta Jahanabad","district":"Vaishali","inCorr":false,"corrDist":0.3,"elevation":7.3},"geometry":{"type":"Point","coordinates":[85.1697,25.8372]}},{"type":"Feature","properties":{"id":"11010957","name":"Ataullahpur","district":"Vaishali","inCorr":false,"corrDist":0.93,"elevation":9.4},"geometry":{"type":"Point","coordinates":[85.1703,25.8489]}},{"type":"Feature","properties":{"id":"11011050","name":"Machhei","district":"Saran","inCorr":true,"corrDist":0,"elevation":4.3},"geometry":{"type":"Point","coordinates":[85.0085,25.9787]}},{"type":"Feature","properties":{"id":"11011054","name":"Ekderwa Masuria","district":"Saran","inCorr":true,"corrDist":0,"elevation":5.7},"geometry":{"type":"Point","coordinates":[85.0636,25.931]}},{"type":"Feature","properties":{"id":"11011059","name":"Ratanpurdih","district":"Muzaffarpur","inCorr":true,"corrDist":0,"elevation":2.4},"geometry":{"type":"Point","coordinates":[85.0303,26.0024]}},{"type":"Feature","properties":{"id":"11011638","name":"Asdharpur","district":"Vaishali","inCorr":false,"corrDist":1.7,"elevation":10},"geometry":{"type":"Point","coordinates":[85.2049,25.7413]}},{"type":"Feature","properties":{"id":"11011639","name":"Madarpur","district":"Vaishali","inCorr":false,"corrDist":2.03,"elevation":9.6},"geometry":{"type":"Point","coordinates":[85.2027,25.738]}},{"type":"Feature","properties":{"id":"11011640","name":"Bakarpur","district":"Vaishali","inCorr":false,"corrDist":1.69,"elevation":9.7},"geometry":{"type":"Point","coordinates":[85.2012,25.7345]}},{"type":"Feature","properties":{"id":"11011641","name":"Shiorampur Dumri","district":"Vaishali","inCorr":false,"corrDist":1.48,"elevation":11.7},"geometry":{"type":"Point","coordinates":[85.1942,25.7424]}},{"type":"Feature","properties":{"id":"11011644","name":"Kuard Khurd","district":"Vaishali","inCorr":false,"corrDist":1.86,"elevation":12.2},"geometry":{"type":"Point","coordinates":[85.2148,25.7273]}},{"type":"Feature","properties":{"id":"11011648","name":"Baladhari","district":"Vaishali","inCorr":false,"corrDist":1.94,"elevation":9.2},"geometry":{"type":"Point","coordinates":[85.2175,25.7217]}},{"type":"Feature","properties":{"id":"11011650","name":"Panapur Gobrahi","district":"Vaishali","inCorr":false,"corrDist":1.85,"elevation":9.3},"geometry":{"type":"Point","coordinates":[85.218,25.7178]}},{"type":"Feature","properties":{"id":"11011654","name":"Fakharabad","district":"Saran","inCorr":false,"corrDist":1.11,"elevation":9.9},"geometry":{"type":"Point","coordinates":[85.1688,25.725]}},{"type":"Feature","properties":{"id":"11011655","name":"Baijalpur Jamuni","district":"Saran","inCorr":false,"corrDist":0.18,"elevation":11.3},"geometry":{"type":"Point","coordinates":[85.1799,25.7217]}},{"type":"Feature","properties":{"id":"11011657","name":"Adalbari","district":"Vaishali","inCorr":false,"corrDist":0.87,"elevation":10.3},"geometry":{"type":"Point","coordinates":[85.2095,25.7047]}},{"type":"Feature","properties":{"id":"11011658","name":"Hathsarganj","district":"Vaishali","inCorr":false,"corrDist":0.48,"elevation":12.6},"geometry":{"type":"Point","coordinates":[85.2059,25.7098]}},{"type":"Feature","properties":{"id":"11011659","name":"Naurangabad","district":"Vaishali","inCorr":false,"corrDist":1.68,"elevation":9.6},"geometry":{"type":"Point","coordinates":[85.2175,25.712]}},{"type":"Feature","properties":{"id":"11011660","name":"Chak Chandaleh","district":"Vaishali","inCorr":false,"corrDist":0.98,"elevation":11.6},"geometry":{"type":"Point","coordinates":[85.2106,25.713]}},{"type":"Feature","properties":{"id":"11011661","name":"Chak Bhuj","district":"Vaishali","inCorr":false,"corrDist":0.93,"elevation":12},"geometry":{"type":"Point","coordinates":[85.2065,25.7209]}},{"type":"Feature","properties":{"id":"11011662","name":"Semara","district":"Saran","inCorr":false,"corrDist":0.13,"elevation":10.3},"geometry":{"type":"Point","coordinates":[85.175,25.7339]}},{"type":"Feature","properties":{"id":"11011663","name":"Kalyanpur","district":"Saran","inCorr":false,"corrDist":0.24,"elevation":9.1},"geometry":{"type":"Point","coordinates":[85.1728,25.7361]}},{"type":"Feature","properties":{"id":"11011664","name":"Akilabad","district":"Vaishali","inCorr":false,"corrDist":1.08,"elevation":12},"geometry":{"type":"Point","coordinates":[85.1987,25.7289]}},{"type":"Feature","properties":{"id":"11011665","name":"Godai Sarai","district":"Vaishali","inCorr":false,"corrDist":1.42,"elevation":10},"geometry":{"type":"Point","coordinates":[85.2037,25.7298]}},{"type":"Feature","properties":{"id":"11011666","name":"Chandaleh","district":"Vaishali","inCorr":false,"corrDist":0.89,"elevation":11.4},"geometry":{"type":"Point","coordinates":[85.2038,25.7228]}},{"type":"Feature","properties":{"id":"11011667","name":"Moazampur","district":"Vaishali","inCorr":false,"corrDist":1.42,"elevation":8.4},"geometry":{"type":"Point","coordinates":[85.2127,25.7368]}},{"type":"Feature","properties":{"id":"11011668","name":"Chak Nur","district":"Vaishali","inCorr":false,"corrDist":1.69,"elevation":10},"geometry":{"type":"Point","coordinates":[85.2036,25.7331]}},{"type":"Feature","properties":{"id":"11011669","name":"Purwa","district":"Vaishali","inCorr":false,"corrDist":1.73,"elevation":10.1},"geometry":{"type":"Point","coordinates":[85.2135,25.7306]}},{"type":"Feature","properties":{"id":"11011670","name":"Ghauspur Ljra","district":"Vaishali","inCorr":false,"corrDist":1.42,"elevation":7.9},"geometry":{"type":"Point","coordinates":[85.2139,25.7347]}},{"type":"Feature","properties":{"id":"11011677","name":"Chak Rabia","district":"Vaishali","inCorr":false,"corrDist":1.21,"elevation":7.6},"geometry":{"type":"Point","coordinates":[85.2124,25.743]}},{"type":"Feature","properties":{"id":"11011679","name":"Raidih","district":"Vaishali","inCorr":false,"corrDist":1.37,"elevation":10.7},"geometry":{"type":"Point","coordinates":[85.1937,25.7477]}},{"type":"Feature","properties":{"id":"11011686","name":"Bagh Mali Chak","district":"Vaishali","inCorr":false,"corrDist":0.73,"elevation":11.2},"geometry":{"type":"Point","coordinates":[85.2043,25.6982]}},{"type":"Feature","properties":{"id":"11011687","name":"Mani Musa","district":"Vaishali","inCorr":false,"corrDist":1.55,"elevation":12.5},"geometry":{"type":"Point","coordinates":[85.2139,25.6986]}},{"type":"Feature","properties":{"id":"11011688","name":"Minapur Rai","district":"Vaishali","inCorr":false,"corrDist":1.36,"elevation":10.8},"geometry":{"type":"Point","coordinates":[85.1943,25.7386]}},{"type":"Feature","properties":{"id":"11011725","name":"Bangali Diara","district":"Saran","inCorr":false,"corrDist":0.76,"elevation":9.1},"geometry":{"type":"Point","coordinates":[85.1582,25.6421]}},{"type":"Feature","properties":{"id":"11011726","name":"Sabbalpur Diara","district":"Saran","inCorr":true,"corrDist":0,"elevation":0},"geometry":{"type":"Point","coordinates":[85.1799,25.645]}},{"type":"Feature","properties":{"id":"11011727","name":"Naikatola","district":"Saran","inCorr":false,"corrDist":0.22,"elevation":11.8},"geometry":{"type":"Point","coordinates":[85.1766,25.663]}},{"type":"Feature","properties":{"id":"11011728","name":"Pachhmitola","district":"Saran","inCorr":false,"corrDist":0.12,"elevation":10.8},"geometry":{"type":"Point","coordinates":[85.1609,25.6673]}},{"type":"Feature","properties":{"id":"11011739","name":"Rampur Madho","district":"Saran","inCorr":false,"corrDist":0.84,"elevation":13.7},"geometry":{"type":"Point","coordinates":[85.1828,25.6884]}},{"type":"Feature","properties":{"id":"11011740","name":"Sawaich","district":"Saran","inCorr":false,"corrDist":0.45,"elevation":13.2},"geometry":{"type":"Point","coordinates":[85.1855,25.696]}},{"type":"Feature","properties":{"id":"11011742","name":"Tangaul","district":"Vaishali","inCorr":false,"corrDist":0.18,"elevation":12.9},"geometry":{"type":"Point","coordinates":[85.1978,25.6952]}},{"type":"Feature","properties":{"id":"11011747","name":"Ram Bhadar","district":"Vaishali","inCorr":false,"corrDist":0.85,"elevation":11.7},"geometry":{"type":"Point","coordinates":[85.2048,25.6772]}},{"type":"Feature","properties":{"id":"11011755","name":"Barbatta","district":"Saran","inCorr":false,"corrDist":1.51,"elevation":9},"geometry":{"type":"Point","coordinates":[85.172,25.7031]}},{"type":"Feature","properties":{"id":"11011756","name":"Barjalpur","district":"Saran","inCorr":false,"corrDist":0.53,"elevation":10.8},"geometry":{"type":"Point","coordinates":[85.1774,25.7158]}},{"type":"Feature","properties":{"id":"11011757","name":"Sikatia","district":"Saran","inCorr":false,"corrDist":0.85,"elevation":12.1},"geometry":{"type":"Point","coordinates":[85.1747,25.7146]}},{"type":"Feature","properties":{"id":"11011758","name":"Damodarpur","district":"Saran","inCorr":false,"corrDist":0.59,"elevation":13},"geometry":{"type":"Point","coordinates":[85.1779,25.7138]}},{"type":"Feature","properties":{"id":"11011759","name":"Akbarpur","district":"Saran","inCorr":false,"corrDist":0.36,"elevation":14.9},"geometry":{"type":"Point","coordinates":[85.1875,25.6859]}},{"type":"Feature","properties":{"id":"11011763","name":"Anadpur","district":"Saran","inCorr":false,"corrDist":0.6,"elevation":10.1},"geometry":{"type":"Point","coordinates":[85.1816,25.7027]}},{"type":"Feature","properties":{"id":"11011774","name":"Sabbalpur","district":"Saran","inCorr":false,"corrDist":1.14,"elevation":13.9},"geometry":{"type":"Point","coordinates":[85.1702,25.6734]}},{"type":"Feature","properties":{"id":"13429280","name":"Bhagwanpur","district":"Saran","inCorr":true,"corrDist":0,"elevation":6.7},"geometry":{"type":"Point","coordinates":[84.9168,26.1124]}},{"type":"Feature","properties":{"id":"13430441","name":"Bhatha","district":"Saran","inCorr":true,"corrDist":0,"elevation":6.9},"geometry":{"type":"Point","coordinates":[85.0592,25.9548]}},{"type":"Feature","properties":{"id":"3453007353","name":"Bhedabari","district":"","inCorr":false,"corrDist":0.83,"elevation":18.6},"geometry":{"type":"Point","coordinates":[84.3046264,27.6919525]}},{"type":"Feature","properties":{"id":"3480234106","name":"Shringa","district":"","inCorr":false,"corrDist":10.59,"elevation":567.7},"geometry":{"type":"Point","coordinates":[84.3098908,27.8044904]}},{"type":"Feature","properties":{"id":"3484124676","name":"Kota","district":"","inCorr":false,"corrDist":8.66,"elevation":1182.8},"geometry":{"type":"Point","coordinates":[84.3453364,27.7887115]}},{"type":"Feature","properties":{"id":"3524108732","name":"Amarapuri","district":"","inCorr":false,"corrDist":2.03,"elevation":24.8},"geometry":{"type":"Point","coordinates":[84.2642668,27.6883105]}},{"type":"Feature","properties":{"id":"3529336790","name":"Bhokataghari","district":"","inCorr":false,"corrDist":3.33,"elevation":23.5},"geometry":{"type":"Point","coordinates":[84.2388151,27.6771195]}},{"type":"Feature","properties":{"id":"3529336791","name":"Kujauli","district":"","inCorr":false,"corrDist":2.74,"elevation":13.9},"geometry":{"type":"Point","coordinates":[84.2390151,27.6663717]}}]}